GSAT0220 (GALILEO 24)   
1 43567U 18060D   24316.07391253 -.00000070  00000+0  00000+0 0  9992
2 43567  57.2989 357.5182 0005963 269.4915  90.5041  1.70475622 39226
BEIDOU-3 M13            
1 43622U 18072A   24317.47716554  .00000001  00000+0  00000+0 0  9990
2 43622  56.1173  81.9391 0004569 292.4165  67.5155  1.86230990 41828
BEIDOU-3 M14            
1 43623U 18072B   24318.41653174 -.00000011  00000+0  00000+0 0  9996
2 43623  56.1200  81.9012 0002303 341.3161  18.6507  1.86230956 41835
GPS BIII-1              
1 43873U 18109A   24317.68677519  .00000078  00000+0  00000+0 0  9993
2 43873  55.3606 115.1580 0031895 192.1181 179.2309  2.00561355 43412
METEOR-M2 2             
1 44387U 19038A   24318.46648062  .00000512  00000+0  24244-3 0  9997
2 44387  98.8484 288.4360 0000269 199.9876 160.1292 14.24062024278638
GPS BIII-2              
1 44506U 19056A   24317.54199581 -.00000069  00000+0  00000+0 0  9993
2 44506  55.8272 354.2154 0048486 193.5085 337.9573  2.00557438 38399
BEIDOU-3 M23            
1 44542U 19061A   24318.25718665  .00000054  00000+0  00000+0 0  9991
2 44542  54.4259 202.3263 0008929  10.5151 349.5892  1.86229289 34979
BEIDOU-3 M24            
1 44543U 19061B   24317.77217205  .00000050  00000+0  00000+0 0  9998
2 44543  54.4242 202.3115 0005608   5.2590 302.2590  1.86229335 34969
BEIDOU-3 M21            
1 44793U 19078A   24318.10160249 -.00000057  00000+0  00000+0 0  9994
2 44793  54.4478 320.1845 0005162  10.7800 349.2528  1.86231913 33838
BEIDOU-3 M22            
1 44794U 19078B   24318.23100794 -.00000058  00000+0  00000+0 0  9999
2 44794  54.4213 320.1528 0003398 353.3758   6.6408  1.86232426 33832
ELEKTRO-L 3             
1 44903U 19095A   24317.89632668 -.00000088  00000+0  00000+0 0  9994
2 44903   0.0803  63.6807 0001935 197.8728 189.7060  1.00270719 17874
GPS BIII-3              
1 45854U 20041A   24318.36814951 -.00000068  00000+0  00000+0 0  9991
2 45854  56.2472  51.5784 0049467 195.9771 149.9363  2.00569850 32389
COSMOS 2547             
1 46805U 20075A   24317.99807298  .00000034  00000+0  00000+0 0  9991
2 46805  64.5963 211.8899 0006628 236.5091 123.4932  2.13102674 31525
GPS BIII-4              
1 46826U 20078A   24316.61566338 -.00000014  00000+0  00000+0 0  9991
2 46826  54.1274 234.4212 0050671 198.6470 295.9181  2.00560154 29822
GSAT0223 (GALILEO 27)   
1 49809U 21116A   24318.36620497 -.00000076  00000+0  00000+0 0  9998
2 49809  57.2890 357.3494 0004347 231.7950 185.5676  1.70475662 18277
GSAT0224 (GALILEO 28)   
1 49810U 21116B   24317.50118744 -.00000074  00000+0  00000+0 0  9990
2 49810  57.2899 357.3715 0004106 240.0236 118.9779  1.70475674 18285
GOES 18                 
1 51850U 22021A   24318.45427684  .00000106  00000+0  00000+0 0  9999
2 51850   0.0014  83.4183 0000640 194.7456 161.4510  1.00271714  9986
COSMOS 2557 (706K)      
1 52984U 22075A   24318.16399930 -.00000031  00000+0  00000+0 0  9995
2 52984  64.6097 334.8839 0014023 276.0446  83.8468  2.13101949 18320
METEOR-M2 3             
1 57166U 23091A   24318.43570829  .00000149  00000+0  84202-4 0  9999
2 57166  98.6942  11.6324 0004932  65.1929 294.9762 14.23951152 71866
COSMOS 2569 (703K)      
1 57517U 23114A   24315.02894264  .00000062  00000+0  00000+0 0  9992
2 57517  64.9859  92.3712 0009047 290.2186  69.6823  2.13103965  9812
METEOR-M2 4             
1 59051U 24039A   24318.48875457  .00000186  00000+0  10320-3 0  9997
2 59051  98.6199 276.8544 0008048  56.2983 303.8961 14.22301234 36712
GSAT0225 (GALILEO 29)   
1 59598U 24079A   24316.04963286  .00000081  00000+0  00000+0 0  9999
2 59598  54.7749 117.3981 0002729 162.7426  16.3727  1.70474425  3375
GSAT0227 (GALILEO 30)   
1 59600U 24079C   24317.11430044  .00000077  00000+0  00000+0 0  9998
2 59600  54.7730 117.3686 0003786 117.9683 242.0824  1.70474479  3445
GSAT0232 (GALILEO 32)   
1 61182U 24167A   24301.00687480 -.00000036  00000+0  00000+0 0  9999
2 61182  55.3980 237.7111 0016456 274.7209  85.0739  1.73176900   674
GSAT0226 (GALILEO 31)   
1 61183U 24167B   24301.95071725 -.00000035  00000+0  00000+0 0  9992
2 61183  55.3944 237.7060 0033143  97.6119 262.7460  1.71381502   671
